KINEIS-2D               
1 62930U 25028C   26197.14022755  .00000754  00000+0  11738-3 0  9996
2 62930  97.9272 249.0276 0004759 107.7801 252.3928 14.75770422 76987
KINEIS-2E               
1 62931U 25028D   26197.15147769  .00000666  00000+0  10140-3 0  9999
2 62931  97.8941 248.1671 0002123  94.1162 266.0291 14.77088819 77059
KINEIS-2A               
1 62932U 25028E   26197.16055384  .00000621  00000+0  10352-3 0  9998
2 62932  98.1287 252.5917 0005974  81.4710 278.7174 14.73451947 76875
KINEIS-2B               
1 62934U 25028G   26197.13793137  .00000595  00000+0  99337-4 0  9993
2 62934  97.9654 249.4733 0004811  71.8270 288.3462 14.73452453 76922
KINEIS-4E               
1 63300U 25056A   26197.33694765  .00000676  00000+0  11460-3 0  9991
2 63300  97.9069 320.4281 0002952  84.1279 276.0265 14.72304503 71413
KINEIS-4C               
1 63301U 25056B   26197.28135013  .00000705  00000+0  11910-3 0  9995
2 63301  97.9123 320.6238 0002870 207.8767 152.2288 14.72326310 71414
KINEIS-4D               
1 63302U 25056C   26197.01258549  .00000714  00000+0  12040-3 0  9992
2 63302  97.9041 320.3353 0001482 210.6524 149.4598 14.72389149 71376
KINEIS-4A               
1 63303U 25056D   26196.84410890  .00000693  00000+0  11724-3 0  9996
2 63303  97.9133 320.1237 0002173 153.4410 206.6909 14.72300671 71346
KINEIS-4B               
1 63304U 25056E   26197.30255797  .00000684  00000+0  11588-3 0  9990
2 63304  97.9149 320.6266 0005391 189.1937 170.9172 14.72330113 71402
