{"fetched_at":"2026-07-16T17:46:46.090Z","source":"https://celestrak.org/NORAD/elements/gp.php?NAME=KINEIS&FORMAT=JSON","constellation":"kineis","records":[{"OBJECT_NAME":"KINEIS-2D","OBJECT_ID":"2025-028C","EPOCH":"2026-07-16T03:21:55.660320","CLASSIFICATION_TYPE":"U","MEAN_MOTION":14.75770422,"ECCENTRICITY":0.00047595,"INCLINATION":97.9272,"RA_OF_ASC_NODE":249.0276,"ARG_OF_PERICENTER":107.7801,"MEAN_ANOMALY":252.3928,"EPHEMERIS_TYPE":0,"NORAD_CAT_ID":62930,"ELEMENT_SET_NO":999,"REV_AT_EPOCH":7698,"BSTAR":0.00011737539,"MEAN_MOTION_DOT":0.00000754,"MEAN_MOTION_DDOT":0},{"OBJECT_NAME":"KINEIS-2E","OBJECT_ID":"2025-028D","EPOCH":"2026-07-16T03:38:07.672416","CLASSIFICATION_TYPE":"U","MEAN_MOTION":14.77088819,"ECCENTRICITY":0.00021236,"INCLINATION":97.8941,"RA_OF_ASC_NODE":248.1671,"ARG_OF_PERICENTER":94.1162,"MEAN_ANOMALY":266.0291,"EPHEMERIS_TYPE":0,"NORAD_CAT_ID":62931,"ELEMENT_SET_NO":999,"REV_AT_EPOCH":7705,"BSTAR":0.00010140098,"MEAN_MOTION_DOT":0.00000666,"MEAN_MOTION_DDOT":0},{"OBJECT_NAME":"KINEIS-2A","OBJECT_ID":"2025-028E","EPOCH":"2026-07-16T03:51:11.851776","CLASSIFICATION_TYPE":"U","MEAN_MOTION":14.73451947,"ECCENTRICITY":0.00059742,"INCLINATION":98.1287,"RA_OF_ASC_NODE":252.5917,"ARG_OF_PERICENTER":81.471,"MEAN_ANOMALY":278.7174,"EPHEMERIS_TYPE":0,"NORAD_CAT_ID":62932,"ELEMENT_SET_NO":999,"REV_AT_EPOCH":7687,"BSTAR":0.0001035183,"MEAN_MOTION_DOT":0.00000621,"MEAN_MOTION_DDOT":0},{"OBJECT_NAME":"KINEIS-2B","OBJECT_ID":"2025-028G","EPOCH":"2026-07-16T03:18:37.270368","CLASSIFICATION_TYPE":"U","MEAN_MOTION":14.73452453,"ECCENTRICITY":0.00048117,"INCLINATION":97.9654,"RA_OF_ASC_NODE":249.4733,"ARG_OF_PERICENTER":71.827,"MEAN_ANOMALY":288.3462,"EPHEMERIS_TYPE":0,"NORAD_CAT_ID":62934,"ELEMENT_SET_NO":999,"REV_AT_EPOCH":7692,"BSTAR":0.000099337277,"MEAN_MOTION_DOT":0.00000595,"MEAN_MOTION_DDOT":0},{"OBJECT_NAME":"KINEIS-4E","OBJECT_ID":"2025-056A","EPOCH":"2026-07-16T08:05:12.276960","CLASSIFICATION_TYPE":"U","MEAN_MOTION":14.72304503,"ECCENTRICITY":0.00029526,"INCLINATION":97.9069,"RA_OF_ASC_NODE":320.4281,"ARG_OF_PERICENTER":84.1279,"MEAN_ANOMALY":276.0265,"EPHEMERIS_TYPE":0,"NORAD_CAT_ID":63300,"ELEMENT_SET_NO":999,"REV_AT_EPOCH":7141,"BSTAR":0.00011459874,"MEAN_MOTION_DOT":0.00000676,"MEAN_MOTION_DDOT":0},{"OBJECT_NAME":"KINEIS-4C","OBJECT_ID":"2025-056B","EPOCH":"2026-07-16T06:45:08.651232","CLASSIFICATION_TYPE":"U","MEAN_MOTION":14.7232631,"ECCENTRICITY":0.00028702,"INCLINATION":97.9123,"RA_OF_ASC_NODE":320.6238,"ARG_OF_PERICENTER":207.8767,"MEAN_ANOMALY":152.2288,"EPHEMERIS_TYPE":0,"NORAD_CAT_ID":63301,"ELEMENT_SET_NO":999,"REV_AT_EPOCH":7141,"BSTAR":0.00011909922,"MEAN_MOTION_DOT":0.00000705,"MEAN_MOTION_DDOT":0},{"OBJECT_NAME":"KINEIS-4D","OBJECT_ID":"2025-056C","EPOCH":"2026-07-16T00:18:07.386336","CLASSIFICATION_TYPE":"U","MEAN_MOTION":14.72389149,"ECCENTRICITY":0.00014825,"INCLINATION":97.9041,"RA_OF_ASC_NODE":320.3353,"ARG_OF_PERICENTER":210.6524,"MEAN_ANOMALY":149.4598,"EPHEMERIS_TYPE":0,"NORAD_CAT_ID":63302,"ELEMENT_SET_NO":999,"REV_AT_EPOCH":7137,"BSTAR":0.0001203998,"MEAN_MOTION_DOT":0.00000714,"MEAN_MOTION_DDOT":0},{"OBJECT_NAME":"KINEIS-4A","OBJECT_ID":"2025-056D","EPOCH":"2026-07-15T20:15:31.008960","CLASSIFICATION_TYPE":"U","MEAN_MOTION":14.72300671,"ECCENTRICITY":0.0002173,"INCLINATION":97.9133,"RA_OF_ASC_NODE":320.1237,"ARG_OF_PERICENTER":153.441,"MEAN_ANOMALY":206.6909,"EPHEMERIS_TYPE":0,"NORAD_CAT_ID":63303,"ELEMENT_SET_NO":999,"REV_AT_EPOCH":7134,"BSTAR":0.00011724,"MEAN_MOTION_DOT":0.00000693,"MEAN_MOTION_DDOT":0},{"OBJECT_NAME":"KINEIS-4B","OBJECT_ID":"2025-056E","EPOCH":"2026-07-16T07:15:41.008608","CLASSIFICATION_TYPE":"U","MEAN_MOTION":14.72330113,"ECCENTRICITY":0.00053911,"INCLINATION":97.9149,"RA_OF_ASC_NODE":320.6266,"ARG_OF_PERICENTER":189.1937,"MEAN_ANOMALY":170.9172,"EPHEMERIS_TYPE":0,"NORAD_CAT_ID":63304,"ELEMENT_SET_NO":999,"REV_AT_EPOCH":7140,"BSTAR":0.00011588056,"MEAN_MOTION_DOT":0.00000684,"MEAN_MOTION_DDOT":0}]}
